GPS BIIR-08             
1 27663U 03005A   26120.25591752 -.00000011  00000+0  00000+0 0  9990
2 27663  54.8916 216.8730 0148162  52.9700 318.2001  2.00563191170359
GPS BIIR-11             
1 28190U 04009A   26119.52671370 -.00000066  00000+0  00000+0 0  9994
2 28190  54.8713 277.6519 0113825 170.9662 187.9936  2.00556332161960
GPS BIIR-13             
1 28474U 04045A   26120.23382380 -.00000084  00000+0  00000+0 0  9999
2 28474  55.1635 326.8274 0170044 315.1073 259.6158  2.00553790157460
GPS BIIR-14M            
1 28874U 05038A   26120.49866823 -.00000063  00000+0  00000+0 0  9990
2 28874  54.9186 275.1006 0127775 295.8791  71.4770  2.00569057150887
METEOSAT-9 (MSG-2)      
1 28912U 05049B   26120.92375676  .00000127  00000+0  00000+0 0  9994
2 28912   9.2574  54.6245 0000791  10.1777 172.3275  1.00277389  6524
GPS BIIR-16M            
1 29601U 06052A   26119.05742682 -.00000025  00000+0  00000+0 0  9990
2 29601  54.9430 215.9533 0086357  90.3027 270.7042  2.00555381142427
GPS BIIR-17M            
1 32260U 07047A   26120.85817488 -.00000030  00000+0  00000+0 0  9993
2 32260  54.0615  82.0153 0164910  86.5597 275.2884  2.00557716135868
GPS BIIR-18M            
1 32384U 07062A   26119.92475313 -.00000065  00000+0  00000+0 0  9998
2 32384  55.0718 276.0914 0034652 162.5647  10.5050  2.00557150134541
GOES 14                 
1 35491U 09033A   26120.86086517 -.00000064  00000+0  00000+0 0  9998
2 35491   1.5695  83.5862 0001922 322.7974 290.6524  1.00117649  6115
GOES 15                 
1 36411U 10008A   26120.92722345  .00000026  00000+0  00000+0 0  9995
2 36411   1.1527  83.7005 0004328  23.5661 148.6695  1.00273234 59168
GSAT0101 (GALILEO-PFM)  
1 37846U 11060A   26116.22899249 -.00000091  00000+0  00000+0 0  9996
2 37846  57.0096 343.1709 0003765  27.2500 332.8105  1.70475694 90230
GSAT0102 (GALILEO-FM2)  
1 37847U 11060B   26119.39239563 -.00000091  00000+0  00000+0 0  9995
2 37847  57.0099 343.0855 0004512   5.4903 181.5954  1.70476048 90292
LUCH 5A                 
1 37951U 11074B   26120.66252920 -.00000044  00000+0  00000+0 0  9998
2 37951   8.6357  74.4928 0002809 312.5310 237.0377  1.00273824 52579
METEOSAT-10 (MSG-3)     
1 38552U 12035B   26120.62952176 -.00000003  00000+0  00000+0 0  9995
2 38552   4.5612  61.2220 0002166 319.7611  64.3492  1.00269206 50389
SARSAT 13 (METOP-B)     
1 38771U 12049A   26120.95687962  .00000108  00000+0  69405-4 0  9991
2 38771  98.6542 173.3895 0003504 115.2949 244.8592 14.21434513706556
GPS BIIF-3              
1 38833U 12053A   26118.45959865  .00000078  00000+0  00000+0 0  9998
2 38833  53.5753 145.6365 0178066  65.1655 296.7459  2.00566686 98447
GSAT0103 (GALILEO-FM3)  
1 38857U 12055A   26120.37548022  .00000028  00000+0  00000+0 0  9994
2 38857  55.7778 102.8561 0005849 296.6140  63.3026  1.70473485 84190
GPS BIIF-4              
1 39166U 13023A   26119.32240211 -.00000065  00000+0  00000+0 0  9998
2 39166  54.5439 270.9630 0141948  50.6854 310.5230  2.00563823 94904
INSAT-3D                
1 39216U 13038B   26120.94031017 -.00000335  00000+0  00000+0 0  9992
2 39216   1.8054  83.1100 0001513 294.3273 309.4698  1.00270389 46609
GPS BIIF-5              
1 39533U 14008A   26119.82181903  .00000075  00000+0  00000+0 0  9997
2 39533  53.6453 151.2925 0083864 230.2270 129.1039  2.00556741 88710
LUCH 5V                 
1 39727U 14023A   26120.93346347 -.00000264  00000+0  00000+0 0  9999
2 39727   5.0194  70.2109 0002584 346.1619 233.3091  1.00270977 43884
GPS BIIF-6              
1 39741U 14026A   26120.59613747 -.00000085  00000+0  00000+0 0  9992
2 39741  56.5201 333.3704 0038859 326.7726  33.0205  2.00564617 87586
GPS BIIF-7              
1 40105U 14045A   26120.68677268 -.00000009  00000+0  00000+0 0  9993
2 40105  55.3229  90.3561 0031757 119.0700 241.2188  2.00555331 85129
GSAT0201 (GALILEO 5)    
1 40128U 14050A   26119.36920254 -.00000085  00000+0  00000+0 0  9997
2 40128  48.9299 275.4347 1666904 177.4849 183.4661  1.85520043 77418
GSAT0202 (GALILEO 6)    
1 40129U 14050B   26120.16389938 -.00000083  00000+0  00000+0 0  9994
2 40129  48.9458 274.4873 1668069 178.2452 182.4187  1.85520667 79597
GPS BIIF-8              
1 40294U 14068A   26120.06189994 -.00000105  00000+0  00000+0 0  9990
2 40294  56.9564  32.8091 0065437  68.9719 291.7324  2.00573384 84242
GLONASS-K 2             
1 40315U 14075A   26119.49776990  .00000030  00000+0  00000+0 0  9991
2 40315  63.6139 192.0570 0021907 210.1722 149.7660  2.13101335 88818
GPS BIIF-9              
1 40534U 15013A   26120.19665651  .00000005  00000+0  00000+0 0  9999
2 40534  53.1736 206.1624 0108875  39.9805 320.8607  2.00554272 80862
GSAT0203 (GALILEO 7)    
1 40544U 15017A   26120.11307455 -.00000090  00000+0  00000+0 0  9996
2 40544  56.8042 342.9065 0002301 308.1059  51.9179  1.70476006 68383
GSAT0204 (GALILEO 8)    
1 40545U 15017B   26115.08949468 -.00000090  00000+0  00000+0 0  9993
2 40545  56.8095 343.0621 0001552 296.0698  63.9535  1.70475480 31343
GPS BIIF-10             
1 40730U 15033A   26119.85747029 -.00000065  00000+0  00000+0 0  9997
2 40730  54.0219 269.0778 0115018  29.9197 330.6888  2.00558803 79024
METEOSAT-11 (MSG-4)     
1 40732U 15034A   26120.91656340  .00000067  00000+0  00000+0 0  9995
2 40732   3.0838  71.3541 0001555 346.1535 140.7816  1.00265438  6747
GSAT0205 (GALILEO 9)    
1 40889U 15045A   26115.63255192 -.00000038  00000+0  00000+0 0  9992
2 40889  54.9613 223.1764 0005159 266.9978  92.9342  1.67410754 66085
GSAT0206 (GALILEO 10)   
1 40890U 15045B   26120.35737389 -.00000019  00000+0  00000+0 0  9991
2 40890  54.9597 222.9247 0001801  27.3233 332.6923  1.70474007 66224
GPS BIIF-11             
1 41019U 15062A   26119.91523487 -.00000106  00000+0  00000+0 0  9993
2 41019  56.9288  32.6711 0111279 231.4981 127.5078  2.00567090 76860
ELEKTRO-L 2             
1 41105U 15074A   26120.69788936 -.00000113  00000+0  00000+0 0  9999
2 41105   6.5775  71.0966 0002154 267.2549 117.0072  1.00271046 38032
GSAT0209 (GALILEO 12)   
1 41174U 15079A   26118.76559823  .00000035  00000+0  00000+0 0  9998
2 41174  55.7996 102.6159 0005668 329.4210  30.5313  1.70474123 63935
GSAT0208 (GALILEO 11)   
1 41175U 15079B   26119.57244455  .00000031  00000+0  00000+0 0  9997
2 41175  55.7968 102.5909 0005046 330.4475  29.5047  1.70474027 64365
GPS BIIF-12             
1 41328U 16007A   26120.00321980 -.00000001  00000+0  00000+0 0  9996
2 41328  55.4950  91.3685 0096117 247.1268 111.8304  2.00554044 74872
GSAT0211 (GALILEO 14)   
1 41549U 16030A   26118.52334768 -.00000033  00000+0  00000+0 0  9994
2 41549  55.1105 223.0603 0002497 355.5704   4.4217  1.70474172 61827
GSAT0210 (GALILEO 13)   
1 41550U 16030B   26119.36721155 -.00000027  00000+0  00000+0 0  9992
2 41550  55.1096 223.0352 0002963 228.3755 131.5982  1.70474107 61830
INSAT-3DR               
1 41752U 16054A   26120.85803836 -.00000074  00000+0  00000+0 0  9997
2 41752   0.1250  86.6619 0011278 194.8815 320.1419  1.00272245 35348
GSAT0207 (GALILEO 15)   
1 41859U 16069A   26119.64542367  .00000029  00000+0  00000+0 0  9994
2 41859  55.4691 102.4278 0005890 317.6958  42.2389  1.70474044 58578
GSAT0212 (GALILEO 16)   
1 41860U 16069B   26119.49890933  .00000030  00000+0  00000+0 0  9996
2 41860  55.4658 102.4270 0004672 341.5358  18.4283  1.70474208 58820
GSAT0213 (GALILEO 17)   
1 41861U 16069C   26118.10651298  .00000037  00000+0  00000+0 0  9990
2 41861  55.4680 102.4733 0005839 303.0756  56.8569  1.70474529 58662
GSAT0214 (GALILEO 18)   
1 41862U 16069D   26117.07947230  .00000042  00000+0  00000+0 0  9996
2 41862  55.4657 102.4944 0004907 307.7514  52.1969  1.70474264 58770
GOES 16                 
1 41866U 16071A   26120.89400517 -.00000087  00000+0  00000+0 0  9999
2 41866   0.2229  85.4389 0001343 262.0343  88.4825  1.00271643 34624
GSAT-17                 
1 42815U 17040B   26120.93320347  .00000000  00000+0  00000+0 0  9992
2 42815   0.0156 262.8792 0003731  58.9950 326.4905  1.00270692 32315
GSAT0215 (GALILEO 19)   
1 43055U 17079A   26118.74269244 -.00000031  00000+0  00000+0 0  9990
2 43055  55.0888 222.8668 0001936 262.5127  97.4612  1.70474778 52147
GSAT0216 (GALILEO 20)   
1 43056U 17079B   26120.20704794 -.00000020  00000+0  00000+0 0  9997
2 43056  55.0873 222.8265 0002781 282.2697  77.7045  1.70475013 52183
GSAT0217 (GALILEO 21)   
1 43057U 17079C   26119.25465610 -.00000027  00000+0  00000+0 0  9999
2 43057  55.0869 222.8506 0002160 304.4605  55.5177  1.70474848 52156
GSAT0218 (GALILEO 22)   
1 43058U 17079D   26118.88813265 -.00000030  00000+0  00000+0 0  9995
2 43058  55.0868 222.8583 0003183 277.7345  82.2260  1.70474848 52172
GOES 17                 
1 43226U 18022A   26120.97891822 -.00000179  00000+0  00000+0 0  9993
2 43226   0.8182  86.3530 0000702 303.8634  91.6218  1.00271659 29952
GSAT0221 (GALILEO 25)   
1 43564U 18060A   26120.55171742 -.00000089  00000+0  00000+0 0  9996
2 43564  57.1835 343.0673 0003564 321.2145  38.8051  1.70475862 48350
GSAT0222 (GALILEO 26)   
1 43565U 18060B   26115.49200276 -.00000090  00000+0  00000+0 0  9991
2 43565  57.1892 343.2075 0002413 289.5902  70.4237  1.70475419 48313
GSAT0219 (GALILEO 23)   
1 43566U 18060C   26119.81903127 -.00000090  00000+0  00000+0 0  9997
2 43566  57.1908 343.0918 0004098 318.8375  41.1767  1.70475881 48368
GSAT0220 (GALILEO 24)   
1 43567U 18060D   26117.10722407 -.00000091  00000+0  00000+0 0  9999
2 43567  57.1835 343.1645 0003171  19.9224 340.1322  1.70475700 48302
BEIDOU-3 M13            
1 43622U 18072A   26119.13587390 -.00000064  00000+0  00000+0 0  9999
2 43622  56.5843  64.2770 0008729 319.5075  40.3910  1.86231038 51748
BEIDOU-3 M14            
1 43623U 18072B   26118.46436510 -.00000059  00000+0  00000+0 0  9996
2 43623  56.5856  64.2934 0006908 342.9993  16.9423  1.86231017 51724
